OSCAR 7 (AO-7)          
1 07530U 74089B   23296.90585258 -.00000023  00000+0  14638-3 0  9997
2 07530 101.9620 284.5112 0012113 176.2674 253.8755 12.53668311239308
PHASE 3B (AO-10)        
1 14129U 83058B   23294.99421124  .00000126  00000+0  00000+0 0  9990
2 14129  27.4362  16.8523 6036512 214.2309  85.4595  2.05868604275539
UOSAT 2 (UO-11)         
1 14781U 84021B   23296.87785508  .00002360  00000+0  27933-3 0  9993
2 14781  97.6743 268.9722 0009361 130.6689 229.5342 14.85470517134240
LUSAT (LO-19)           
1 20442U 90005G   23296.89811898  .00000316  00000+0  13129-3 0  9998
2 20442  98.8603 276.2648 0012095 156.2778 203.8965 14.33348486763784
EYESAT A (AO-27)        
1 22825U 93061C   23297.41180042  .00000172  00000+0  83959-4 0  9998
2 22825  98.8262 342.2948 0009285  55.5439 304.6619 14.30366497569038
ITAMSAT (IO-26)         
1 22826U 93061D   23297.38235414  .00000196  00000+0  92372-4 0  9994
2 22826  98.8208 342.1265 0009627  42.1732 318.0189 14.30734360569284
RADIO ROSTO (RS-15)     
1 23439U 94085A   23296.86835934 -.00000033  00000+0  26130-3 0  9996
2 23439  64.8176  67.5638 0158508 187.4129 172.4448 11.27575827186830
JAS-2 (FO-29)           
1 24278U 96046B   23297.43950386  .00000055  00000+0  89021-4 0  9992
2 24278  98.5482 258.4772 0351215  81.7257 282.3544 13.53158026342666
TECHSAT 1B (GO-32)      
1 25397U 98043D   23296.88319034  .00000201  00000+0  10747-3 0  9992
2 25397  98.8866 255.5473 0002290 107.1978 252.9451 14.23930327313649
ISS (ZARYA)             
1 25544U 98067A   23297.54734152  .00014482  00000+0  26480-3 0  9995
2 25544  51.6428  47.7812 0000612 112.0677 356.3742 15.49613668421859
PCSAT (NO-44)           
1 26931U 01043C   23297.15443562  .00000355  00000+0  16602-3 0  9992
2 26931  67.0507 223.7968 0006632 256.7989 103.2372 14.31021239152190
SAUDISAT 1C (SO-50)     
1 27607U 02058C   23297.17154469  .00001620  00000+0  23917-3 0  9990
2 27607  64.5553 229.3624 0054570 196.5806 163.3515 14.77808281121493
CUTE-1 (CO-55)          
1 27844U 03031E   23296.93739936  .00000552  00000+0  26450-3 0  9994
2 27844  98.6806 302.3348 0010834 110.4937 249.7405 14.22928679 54042
CUBESAT XI-IV (CO-57)   
1 27848U 03031J   23296.00881271  .00000513  00000+0  24962-3 0  9999
2 27848  98.6840 301.7836 0010573 126.9356 233.2791 14.22418095 53676
MOZHAYETS 4 (RS-22)     
1 27939U 03042A   23297.51611498  .00001815  00000+0  31885-3 0  9999
2 27939  98.2616  85.6272 0013483  88.5036   1.1393 14.68871992 73522
CUBESAT XI-V            
1 28895U 05043F   23297.35050273  .00002123  00000+0  39338-3 0  9998
2 28895  98.1712  68.6001 0016592  28.8604 331.3513 14.66266354959964
CUTE-1.7+APD II (CO-65) 
1 32785U 08021C   23297.49386625  .00004608  00000+0  44166-3 0  9993
2 32785  97.7226 260.8880 0013033  40.9012 319.3183 14.93560520840182
DELFI-C3 (DO-64)        
1 32789U 08021G   23297.29389307  .00349227  00000+0  25809-2 0  9996
2 32789  97.2821 320.0383 0003429  92.0596 268.1060 15.71935887847464
SEEDS II (CO-66)        
1 32791U 08021J   23296.89443237  .00007639  00000+0  63906-3 0  9996
2 32791  97.6720 265.6889 0011366 350.9097   9.1918 14.98704700841000
YUBILEINY (RS-30)       
1 32953U 08025A   23297.45768785  .00000036  00000+0  18933-3 0  9995
2 32953  82.5036 236.6796 0018215 263.6842  96.2163 12.43131068699713
KKS-1 (KISEKI)          
1 33499U 09002H   23297.49383725  .00001678  00000+0  24231-3 0  9999
2 33499  98.1550 191.3803 0008873 162.8744 197.2767 14.77558186793584
SWISSCUBE               
1 35932U 09051B   23297.15033917  .00001675  00000+0  37423-3 0  9999
2 35932  98.4995 170.4606 0007130 339.5872  20.5040 14.58114409748041
BEESAT-1                
1 35933U 09051C   23297.39678581  .00001374  00000+0  30987-3 0  9992
2 35933  98.4921 171.9045 0005647 354.2657   5.8476 14.57973678748195
ITUPSAT1                
1 35935U 09051E   23297.11021687  .00001336  00000+0  30790-3 0  9993
2 35935  98.5021 171.5076 0008010 356.9999   3.1149 14.56995356747760
XIWANG-1 (HOPE-1)       
1 36122U 09072B   23297.13767547  .00000004  00000+0  12446-3 0  9998
2 36122 100.2574 257.0340 0006892 289.5252  70.5117 13.16389485665864
JUGNU                   
1 37839U 11058B   23297.49345598  .00000629  00000+0  19102-3 0  9997
2 37839  19.9615  58.3571 0018672 205.0993 224.3365 14.13039787622204
SRMSAT                  
1 37841U 11058D   23297.30623579  .00000519  00000+0  13992-3 0  9997
2 37841  19.9706 149.3200 0011832  11.0288 144.8886 14.10968627621283
M-CUBED & EXP-1 PRIME   
1 37855U 11061F   23297.06933136  .00037295  00000+0  92722-3 0  9991
2 37855 101.7057 332.3999 0100579   3.2825 356.9041 15.35086211656749
STRAND-1                
1 39090U 13009E   23296.79828240  .00000552  00000+0  20552-3 0  9994
2 39090  98.3839 126.6325 0007900 237.8273 122.2148 14.35740662558170
BEESAT-3                
1 39135U 13015F   23297.28977289  .00127669  00000+0  13860-2 0  9996
2 39135  64.8487 258.8186 0011221 262.1457  97.8417 15.62788045582380
BEESAT-2                
1 39136U 13015G   23297.19535316  .00087453  00000+0  12559-2 0  9998
2 39136  64.8607 273.8546 0022020 267.0622  92.8003 15.55339854582107
ZACUBE-1 (TSHEPISOSAT)  
1 39417U 13066B   23296.88668814  .00004329  00000+0  48669-3 0  9994
2 39417  97.7020 254.2363 0052224 222.4390 137.2782 14.86227755536307
GOMX-1                  
1 39430U 13066Q   23297.52876150  .00002826  00000+0  49013-3 0  9999
2 39430  97.7597 181.0554 0142358 284.2189  74.3236 14.62558082528434
CUBEBUG-2 (LO-74)       
1 39440U 13066AA  23296.83695609  .00005233  00000+0  65858-3 0  9991
2 39440  97.7844 241.5431 0072843 329.9805  29.7240 14.80585668533186
FUNCUBE-1 (AO-73)       
1 39444U 13066AE  23297.16190239  .00005506  00000+0  58828-3 0  9993
2 39444  97.6875 257.1856 0050616 204.9202 154.9571 14.88234515535409
UWE-3                   
1 39446U 13066AG  23297.13810779  .00005023  00000+0  59997-3 0  9992
2 39446  97.7496 247.9356 0062063 277.5168  81.8998 14.83273084534127
SPROUT                  
1 39770U 14029E   23297.38204543  .00030625  00000+0  18971-2 0  9997
2 39770  97.9993  69.1803 0006457 247.3118 112.7428 15.09699386511591
UNISAT-6                
1 40012U 14033C   23297.43897443  .00002900  00000+0  40217-3 0  9990
2 40012  97.6819 105.2789 0054782 357.6204   2.4739 14.77657801502855
DUCHIFAT-1              
1 40021U 14033M   23297.18332448  .00008604  00000+0  68730-3 0  9998
2 40021  98.0707 265.5841 0011265 175.6755 184.4567 15.00466604508518
QB50P1                  
1 40025U 14033R   23297.14460808  .00007300  00000+0  66361-3 0  9990
2 40025  98.0098 246.4133 0009363 217.5190 142.5378 14.95510842507917
ZDPS 2A                 
1 40901U 15049C   23296.79699194  .00099803  00000+0  12375-2 0  9997
2 40901  97.4321 316.0769 0005770  51.0674 309.1096 15.59692278449151
ZDPS 2B                 
1 40902U 15049D   23297.53245436  .00117767  00000+0  12391-2 0  9995
2 40902  97.4433 315.9582 0005381  52.6671 307.5077 15.63901308449297
KAITUO 1A               
1 40904U 15049F   23297.50879233  .00017905  00000+0  59386-3 0  9991
2 40904  97.4991 304.2700 0012649  82.3935 277.8742 15.31238083448069
2015-049G               
1 40905U 15049G   23297.48887027  .00007806  00000+0  33298-3 0  9992
2 40905  97.5277 300.1269 0015094  92.8701 267.4263 15.23096767447623
XW-2C                   
1 40906U 15049H   23297.47658314  .00014033  00000+0  47803-3 0  9994
2 40906  97.4942 305.3798 0012874  70.9386 289.3248 15.30426603448143
XW-2D                   
1 40907U 15049J   23297.49368146  .00017989  00000+0  55948-3 0  9990
2 40907  97.4914 306.3537 0011695  64.7390 295.5062 15.33310999448260
LILACSAT-2              
1 40908U 15049K   23297.46805291  .00006484  00000+0  28944-3 0  9999
2 40908  97.5291 300.3446 0015505  98.3545 261.9449 15.21614400447448
XW-2E                   
1 40909U 15049L   23297.48663431  .00048573  00000+0  86951-3 0  9997
2 40909  97.4451 314.3655 0007346  37.8964 322.2803 15.49803661449086
XW-2F                   
1 40910U 15049M   23297.48034920  .00047990  00000+0  88513-3 0  9992
2 40910  97.4550 313.6191 0008058  39.3318 320.8517 15.48946560448817
XW-2B                   
1 40911U 15049N   23297.51139489  .00017946  00000+0  56351-3 0  9996
2 40911  97.4891 306.7202 0011761  66.1279 294.1194 15.33005997448145
KAITUO 1B               
1 40912U 15049P   23297.53847740  .00088899  00000+0  10702-2 0  9999
2 40912  97.4038 319.0819 0003894 349.1210  10.9962 15.60520054449657
LAPAN-A2                
1 40931U 15052B   23296.22581937  .00001521  00000+0  11994-3 0  9994
2 40931   6.0000 252.4402 0013508 307.6116  52.2786 14.77429695436316
E-ST@R-II               
1 41459U 16025D   23297.53464303  .00044604  00000+0  96508-3 0  9996
2 41459  98.1674 152.7651 0087214   7.0484 353.1964 15.40301727412730
AIST-2D (RS-48)         
1 41465U 16026B   23297.45935054  .00039533  00000+0  37197-3 0  9995
2 41465  96.9727 167.0129 0008210 101.4543 258.7641 15.66976928420140
CAS-2T & KS-1Q          
1 41847U 16066G   23296.93121399  .00002651  00000+0  39836-3 0  9997
2 41847  98.4915   4.8272 0358230 170.8133 189.9848 14.40205241365339
ZHUHAI-1 02 (CAS-4B)    
1 42759U 17034B   23297.49566927  .00010303  00000+0  47562-3 0  9996
2 42759  43.0131 115.4973 0011973 227.8386 132.1446 15.20245868351290
ZHUHAI-1 01 (CAS-4A)    
1 42761U 17034D   23297.51080849  .00009988  00000+0  46083-3 0  9990
2 42761  43.0131 113.9214 0012858 229.1041 130.8695 15.20283810351302
MAX VALIER SAT          
1 42778U 17036P   23297.08524831  .00035662  00000+0  71416-3 0  9992
2 42778  97.1395 329.3982 0006291  10.6288 349.5094 15.46643103352594
RADFXSAT (FOX-1B)       
1 43017U 17073E   23297.24447833  .00009153  00000+0  61654-3 0  9993
2 43017  97.6085 176.5124 0226888   2.8759 357.3702 14.88227140320361
FOX-1D (AO-92)          
1 43137U 18004AC  23296.77055128  .00079722  00000+0  94583-3 0  9996
2 43137  97.3142  18.3769 0003141  16.1796 343.9561 15.60938299322256
